{"type": "FeatureCollection", "features": [ {"type": "Feature", "properties": {"norad_id": 67083, "name": "STARLINK-36170", "group": "last-30-days", "lat": -27.20019380210377, "lon": -163.07375279195028, "alt_km": 357.6809676402463, "timestamp": "2025-12-27T14:26:29.246309+00:00", "meta": {"OBJECT_NAME": "STARLINK-36170", "OBJECT_ID": "2025-298J", "EPOCH": "2025-12-27T06:00:02.000160", "MEAN_MOTION": 15.7322451, "ECCENTRICITY": 0.00033519, "INCLINATION": 69.9993, "RA_OF_ASC_NODE": 208.7078, "ARG_OF_PERICENTER": 275.3124, "MEAN_ANOMALY": 225.226, "EPHEMERIS_TYPE": 0, "CLASSIFICATION_TYPE": "U", "NORAD_CAT_ID": 67083, "ELEMENT_SET_NO": 999, "REV_AT_EPOCH": 331, "BSTAR": -0.014611985, "MEAN_MOTION_DOT": -0.01774426, "MEAN_MOTION_DDOT": 0}, "tle": {"line1": "1 67083U 25298J   25361.25002315 -.01774426  00000+0 -14612-1 0  9992", "line2": "2 67083  69.9993 208.7078 0003351 275.3124 225.2260 15.73224510  3315"}}, "geometry": {"type": "Point", "coordinates": [-163.07375279195028, -27.20019380210377]}}, {"type": "Feature", "properties": {"norad_id": 67084, "name": "STARLINK-36166", "group": "last-30-days", "lat": -25.378436115754425, "lon": -162.2360179960375, "alt_km": 357.5573877029974, "timestamp": "2025-12-27T14:26:29.246319+00:00", "meta": {"OBJECT_NAME": "STARLINK-36166", "OBJECT_ID": "2025-298K", "EPOCH": "2025-12-27T06:00:02.000160", "MEAN_MOTION": 15.73218728, "ECCENTRICITY": 0.00033411, "INCLINATION": 69.9991, "RA_OF_ASC_NODE": 208.7063, "ARG_OF_PERICENTER": 277.2756, "MEAN_ANOMALY": 225.2414, "EPHEMERIS_TYPE": 0, "CLASSIFICATION_TYPE": "U", "NORAD_CAT_ID": 67084, "ELEMENT_SET_NO": 999, "REV_AT_EPOCH": 325, "BSTAR": -0.01458928, "MEAN_MOTION_DOT": -0.01771607, "MEAN_MOTION_DDOT": 0}, "tle": {"line1": "1 67084U 25298K   25361.25002315 -.01771607  00000+0 -14589-1 0  9994", "line2": "2 67084  69.9991 208.7063 0003341 277.2756 225.2414 15.73218728  3257"}}, "geometry": {"type": "Point", "coordinates": [-162.2360179960375, -25.378436115754425]}}, {"type": "Feature", "properties": {"norad_id": 67085, "name": "STARLINK-35794", "group": "last-30-days", "lat": -23.565794797018253, "lon": -161.43050850817593, "alt_km": 357.52345450281064, "timestamp": "2025-12-27T14:26:29.246331+00:00", "meta": {"OBJECT_NAME": "STARLINK-35794", "OBJECT_ID": "2025-298L", "EPOCH": "2025-12-27T06:00:02.000160", "MEAN_MOTION": 15.73217965, "ECCENTRICITY": 0.00033679, "INCLINATION": 69.9994, "RA_OF_ASC_NODE": 208.7033, "ARG_OF_PERICENTER": 275.9856, "MEAN_ANOMALY": 228.4899, "EPHEMERIS_TYPE": 0, "CLASSIFICATION_TYPE": "U", "NORAD_CAT_ID": 67085, "ELEMENT_SET_NO": 999, "REV_AT_EPOCH": 331, "BSTAR": -0.014608083, "MEAN_MOTION_DOT": -0.01773586, "MEAN_MOTION_DDOT": 0}, "tle": {"line1": "1 67085U 25298L   25361.25002315 -.01773586  00000+0 -14608-1 0  9995", "line2": "2 67085  69.9994 208.7033 0003367 275.9856 228.4899 15.73217965  3313"}}, "geometry": {"type": "Point", "coordinates": [-161.43050850817593, -23.565794797018253]}}, {"type": "Feature", "properties": {"norad_id": 67086, "name": "STARLINK-35841", "group": "last-30-days", "lat": -21.616676861593753, "lon": -160.59030103643624, "alt_km": 357.4927465484716, "timestamp": "2025-12-27T14:26:29.246343+00:00", "meta": {"OBJECT_NAME": "STARLINK-35841", "OBJECT_ID": "2025-298M", "EPOCH": "2025-12-27T06:00:02.000160", "MEAN_MOTION": 15.73206766, "ECCENTRICITY": 0.00032694, "INCLINATION": 69.9993, "RA_OF_ASC_NODE": 208.7008, "ARG_OF_PERICENTER": 275.9232, "MEAN_ANOMALY": 230.6649, "EPHEMERIS_TYPE": 0, "CLASSIFICATION_TYPE": "U", "NORAD_CAT_ID": 67086, "ELEMENT_SET_NO": 999, "REV_AT_EPOCH": 331, "BSTAR": -0.014581482, "MEAN_MOTION_DOT": -0.01769905, "MEAN_MOTION_DDOT": 0}, "tle": {"line1": "1 67086U 25298M   25361.25002315 -.01769905  00000+0 -14581-1 0  9996", "line2": "2 67086  69.9993 208.7008 0003269 275.9232 230.6649 15.73206766  3319"}}, "geometry": {"type": "Point", "coordinates": [-160.59030103643624, -21.616676861593753]}}, {"type": "Feature", "properties": {"norad_id": 67087, "name": "STARLINK-35842", "group": "last-30-days", "lat": -49.693854885698535, "lon": -177.68449109575832, "alt_km": 373.5812806703698, "timestamp": "2025-12-27T14:26:29.246354+00:00", "meta": {"OBJECT_NAME": "STARLINK-35842", "OBJECT_ID": "2025-298N", "EPOCH": "2025-12-27T06:00:02.000160", "MEAN_MOTION": 15.6842324, "ECCENTRICITY": 0.00033396, "INCLINATION": 69.9994, "RA_OF_ASC_NODE": 208.7303, "ARG_OF_PERICENTER": 274.343, "MEAN_ANOMALY": 207.4801, "EPHEMERIS_TYPE": 0, "CLASSIFICATION_TYPE": "U", "NORAD_CAT_ID": 67087, "ELEMENT_SET_NO": 999, "REV_AT_EPOCH": 331, "BSTAR": -0.025705249, "MEAN_MOTION_DOT": -0.02536829, "MEAN_MOTION_DDOT": 0}, "tle": {"line1": "1 67087U 25298N   25361.25002315 -.02536829  00000+0 -25705-1 0  9995", "line2": "2 67087  69.9994 208.7303 0003339 274.3430 207.4801 15.68423240  3314"}}, "geometry": {"type": "Point", "coordinates": [-177.68449109575832, -49.693854885698535]}}, {"type": "Feature", "properties": {"norad_id": 67088, "name": "STARLINK-35882", "group": "last-30-days", "lat": -17.97570893362505, "lon": -159.08277699862217, "alt_km": 357.3260988727334, "timestamp": "2025-12-27T14:26:29.246364+00:00", "meta": {"OBJECT_NAME": "STARLINK-35882", "OBJECT_ID": "2025-298P", "EPOCH": "2025-12-27T06:00:02.000160", "MEAN_MOTION": 15.73203657, "ECCENTRICITY": 0.00034116, "INCLINATION": 69.9994, "RA_OF_ASC_NODE": 208.6964, "ARG_OF_PERICENTER": 274.7097, "MEAN_ANOMALY": 235.7923, "EPHEMERIS_TYPE": 0, "CLASSIFICATION_TYPE": "U", "NORAD_CAT_ID": 67088, "ELEMENT_SET_NO": 999, "REV_AT_EPOCH": 331, "BSTAR": -0.014612015, "MEAN_MOTION_DOT": -0.01773087, "MEAN_MOTION_DDOT": 0}, "tle": {"line1": "1 67088U 25298P   25361.25002315 -.01773087  00000+0 -14612-1 0  9999", "line2": "2 67088  69.9994 208.6964 0003411 274.7097 235.7923 15.73203657  3314"}}, "geometry": {"type": "Point", "coordinates": [-159.08277699862217, -17.97570893362505]}}, {"type": "Feature", "properties": {"norad_id": 67089, "name": "STARLINK-35763", "group": "last-30-days", "lat": -16.034048572222293, "lon": -158.30809669754888, "alt_km": 357.242953101425, "timestamp": "2025-12-27T14:26:29.246376+00:00", "meta": {"OBJECT_NAME": "STARLINK-35763", "OBJECT_ID": "2025-298Q", "EPOCH": "2025-12-27T06:00:02.000160", "MEAN_MOTION": 15.73193409, "ECCENTRICITY": 0.0003151, "INCLINATION": 69.9992, "RA_OF_ASC_NODE": 208.6928, "ARG_OF_PERICENTER": 276.6212, "MEAN_ANOMALY": 235.9766, "EPHEMERIS_TYPE": 0, "CLASSIFICATION_TYPE": "U", "NORAD_CAT_ID": 67089, "ELEMENT_SET_NO": 999, "REV_AT_EPOCH": 331, "BSTAR": -0.014612617, "MEAN_MOTION_DOT": -0.01772213, "MEAN_MOTION_DDOT": 0}, "tle": {"line1": "1 67089U 25298Q   25361.25002315 -.01772213  00000+0 -14613-1 0  9991", "line2": "2 67089  69.9992 208.6928 0003151 276.6212 235.9766 15.73193409  3314"}}, "geometry": {"type": "Point", "coordinates": [-158.30809669754888, -16.034048572222293]}}, {"type": "Feature", "properties": {"norad_id": 67090, "name": "STARLINK-36060", "group": "last-30-days", "lat": -14.276046601862397, "lon": -157.6192627896673, "alt_km": 357.0808339891837, "timestamp": "2025-12-27T14:26:29.246386+00:00", "meta": {"OBJECT_NAME": "STARLINK-36060", "OBJECT_ID": "2025-298R", "EPOCH": "2025-12-27T06:00:02.000160", "MEAN_MOTION": 15.73196744, "ECCENTRICITY": 0.0003411, "INCLINATION": 69.9991, "RA_OF_ASC_NODE": 208.6909, "ARG_OF_PERICENTER": 275.9399, "MEAN_ANOMALY": 238.5304, "EPHEMERIS_TYPE": 0, "CLASSIFICATION_TYPE": "U", "NORAD_CAT_ID": 67090, "ELEMENT_SET_NO": 999, "REV_AT_EPOCH": 325, "BSTAR": -0.014598129, "MEAN_MOTION_DOT": -0.01771144, "MEAN_MOTION_DDOT": 0}, "tle": {"line1": "1 67090U 25298R   25361.25002315 -.01771144  00000+0 -14598-1 0  9997", "line2": "2 67090  69.9991 208.6909 0003411 275.9399 238.5304 15.73196744  3256"}}, "geometry": {"type": "Point", "coordinates": [-157.6192627896673, -14.276046601862397]}}, {"type": "Feature", "properties": {"norad_id": 67091, "name": "STARLINK-36097", "group": "last-30-days", "lat": -12.346392958336752, "lon": -156.876158564262, "alt_km": 357.0675001623413, "timestamp": "2025-12-27T14:26:29.246396+00:00", "meta": {"OBJECT_NAME": "STARLINK-36097", "OBJECT_ID": "2025-298S", "EPOCH": "2025-12-27T06:00:02.000160", "MEAN_MOTION": 15.73187802, "ECCENTRICITY": 0.00032839, "INCLINATION": 69.9991, "RA_OF_ASC_NODE": 208.6889, "ARG_OF_PERICENTER": 274.5777, "MEAN_ANOMALY": 241.9674, "EPHEMERIS_TYPE": 0, "CLASSIFICATION_TYPE": "U", "NORAD_CAT_ID": 67091, "ELEMENT_SET_NO": 999, "REV_AT_EPOCH": 331, "BSTAR": -0.014616851, "MEAN_MOTION_DOT": -0.01772415, "MEAN_MOTION_DDOT": 0}, "tle": {"line1": "1 67091U 25298S   25361.25002315 -.01772415  00000+0 -14617-1 0  9992", "line2": "2 67091  69.9991 208.6889 0003283 274.5777 241.9674 15.73187802  3316"}}, "geometry": {"type": "Point", "coordinates": [-156.876158564262, -12.346392958336752]}}, {"type": "Feature", "properties": {"norad_id": 67092, "name": "STARLINK-35792", "group": "last-30-days", "lat": -10.584235228022216, "lon": -156.20864066808872, "alt_km": 356.90585635885964, "timestamp": "2025-12-27T14:26:29.246406+00:00", "meta": {"OBJECT_NAME": "STARLINK-35792", "OBJECT_ID": "2025-298T", "EPOCH": "2025-12-27T06:00:02.000160", "MEAN_MOTION": 15.73191562, "ECCENTRICITY": 0.00033427, "INCLINATION": 69.9993, "RA_OF_ASC_NODE": 208.6862, "ARG_OF_PERICENTER": 275.0268, "MEAN_ANOMALY": 243.3933, "EPHEMERIS_TYPE": 0, "CLASSIFICATION_TYPE": "U", "NORAD_CAT_ID": 67092, "ELEMENT_SET_NO": 999, "REV_AT_EPOCH": 325, "BSTAR": -0.014607663, "MEAN_MOTION_DOT": -0.01771745, "MEAN_MOTION_DDOT": 0}, "tle": {"line1": "1 67092U 25298T   25361.25002315 -.01771745  00000+0 -14608-1 0  9998", "line2": "2 67092  69.9993 208.6862 0003342 275.0268 243.3933 15.73191562  3252"}}, "geometry": {"type": "Point", "coordinates": [-156.20864066808872, -10.584235228022216]}}]}